{
  "version": 0.6,
  "generator": "Overpass API",
  "osm3s": {
    "timestamp_osm_base": "2016-01-16T14:49:02Z",
    "timestamp_areas_base": "2015-12-18T10:35:02Z",
    "copyright": "The data included in this document is from www.openstreetmap.org. The data is made available under ODbL."
  },
  "elements": [

{
  "type": "node",
  "id": 60218823,
  "lat": 50.7371118,
  "lon": -1.7148591,
  "tags": {
    "amenity": "toilets"
  }
},
{
  "type": "node",
  "id": 60762834,
  "lat": 50.6843425,
  "lon": -2.1092971,
  "tags": {
    "amenity": "toilets",
    "created_by": "Potlatch 0.4a"
  }
},
{
  "type": "node",
  "id": 60765238,
  "lat": 50.6866340,
  "lon": -2.1095642,
  "tags": {
    "amenity": "toilets",
    "created_by": "Potlatch alpha"
  }
},
{
  "type": "node",
  "id": 60810125,
  "lat": 50.6926801,
  "lon": -2.1154205,
  "tags": {
    "amenity": "toilets",
    "created_by": "Potlatch 0.4a"
  }
},
{
  "type": "node",
  "id": 252186550,
  "lat": 50.6515851,
  "lon": -1.9536151,
  "tags": {
    "amenity": "toilets",
    "female": "yes",
    "male": "yes"
  }
},
{
  "type": "node",
  "id": 299050882,
  "lat": 50.6157961,
  "lon": -1.9579579,
  "tags": {
    "amenity": "toilets"
  }
},
{
  "type": "node",
  "id": 299070816,
  "lat": 50.6204239,
  "lon": -1.9552678,
  "tags": {
    "amenity": "toilets"
  }
},
{
  "type": "node",
  "id": 304693339,
  "lat": 50.8112139,
  "lon": -2.0334025,
  "tags": {
    "amenity": "toilets"
  }
},
{
  "type": "node",
  "id": 340366964,
  "lat": 50.7222709,
  "lon": -2.8235222,
  "tags": {
    "amenity": "toilets"
  }
},
{
  "type": "node",
  "id": 385077751,
  "lat": 50.6594295,
  "lon": -2.6003660,
  "tags": {
    "amenity": "toilets",
    "fee": "no",
    "note": "Outside Swannery Entrance",
    "operator": "Abbotsbury Swannery"
  }
},
{
  "type": "node",
  "id": 385447497,
  "lat": 50.6943995,
  "lon": -2.2173682,
  "tags": {
    "amenity": "toilets",
    "fee": "no",
    "note": "Entrance to Monkey World required",
    "operator": "Monkey World"
  }
},
{
  "type": "node",
  "id": 385447499,
  "lat": 50.6929101,
  "lon": -2.2177782,
  "tags": {
    "amenity": "toilets",
    "fee": "no",
    "note": "Entrance to Monkey World required",
    "operator": "Monkey World"
  }
},
{
  "type": "node",
  "id": 431615440,
  "lat": 50.6101876,
  "lon": -1.9585809,
  "tags": {
    "amenity": "toilets"
  }
},
{
  "type": "node",
  "id": 565119724,
  "lat": 50.8026060,
  "lon": -1.9927540,
  "tags": {
    "amenity": "toilets"
  }
},
{
  "type": "node",
  "id": 588165440,
  "lat": 50.5149519,
  "lon": -2.4570837,
  "tags": {
    "amenity": "toilets"
  }
},
{
  "type": "node",
  "id": 588173353,
  "lat": 50.5553803,
  "lon": -2.4406130,
  "tags": {
    "amenity": "toilets",
    "fee": "no"
  }
},
{
  "type": "node",
  "id": 590722857,
  "lat": 50.6593206,
  "lon": -2.6238680,
  "tags": {
    "amenity": "toilets"
  }
},
{
  "type": "node",
  "id": 614353373,
  "lat": 50.7107688,
  "lon": -2.7644210,
  "tags": {
    "amenity": "toilets",
    "fee": "no"
  }
},
{
  "type": "node",
  "id": 614353374,
  "lat": 50.7105871,
  "lon": -2.7613720,
  "tags": {
    "amenity": "toilets",
    "fee": "no"
  }
},
{
  "type": "node",
  "id": 614353385,
  "lat": 50.7113548,
  "lon": -2.7582014,
  "tags": {
    "amenity": "toilets",
    "fee": "no"
  }
},
{
  "type": "node",
  "id": 614353457,
  "lat": 50.7338259,
  "lon": -2.7624953,
  "tags": {
    "amenity": "toilets"
  }
},
{
  "type": "node",
  "id": 614353463,
  "lat": 50.7321174,
  "lon": -2.7552715,
  "tags": {
    "amenity": "toilets"
  }
},
{
  "type": "node",
  "id": 620090368,
  "lat": 50.6765979,
  "lon": -2.6654475,
  "tags": {
    "amenity": "toilets"
  }
},
{
  "type": "node",
  "id": 633483638,
  "lat": 50.7365997,
  "lon": -2.8749747,
  "tags": {
    "amenity": "toilets"
  }
},
{
  "type": "node",
  "id": 633753069,
  "lat": 50.7335120,
  "lon": -2.9021962,
  "tags": {
    "amenity": "toilets"
  }
},
{
  "type": "node",
  "id": 666916474,
  "lat": 50.6464136,
  "lon": -1.9506095,
  "tags": {
    "amenity": "toilets"
  }
},
{
  "type": "node",
  "id": 845434840,
  "lat": 51.0030854,
  "lon": -2.3014650,
  "tags": {
    "amenity": "toilets"
  }
},
{
  "type": "node",
  "id": 927353900,
  "lat": 51.0065482,
  "lon": -2.1982380,
  "tags": {
    "amenity": "toilets",
    "fee": "yes",
    "source": "survey"
  }
},
{
  "type": "node",
  "id": 1171244765,
  "lat": 50.6894302,
  "lon": -2.0407642,
  "tags": {
    "amenity": "toilets"
  }
},
{
  "type": "node",
  "id": 1245615167,
  "lat": 50.6061829,
  "lon": -2.4528458,
  "tags": {
    "amenity": "toilets"
  }
},
{
  "type": "node",
  "id": 1313279199,
  "lat": 50.8815079,
  "lon": -1.8790483,
  "tags": {
    "amenity": "toilets"
  }
},
{
  "type": "node",
  "id": 1316260587,
  "lat": 50.6773660,
  "lon": -1.9512515,
  "tags": {
    "amenity": "toilets"
  }
},
{
  "type": "node",
  "id": 1340961676,
  "lat": 50.7309496,
  "lon": -1.7776712,
  "tags": {
    "amenity": "toilets"
  }
},
{
  "type": "node",
  "id": 1397303016,
  "lat": 50.7348883,
  "lon": -1.7769193,
  "tags": {
    "amenity": "toilets"
  }
},
{
  "type": "node",
  "id": 1569733671,
  "lat": 50.7210514,
  "lon": -2.9388637,
  "tags": {
    "amenity": "toilets",
    "fee": "no",
    "name": "Cobb Arms Public Toilets"
  }
},
{
  "type": "node",
  "id": 1569733716,
  "lat": 50.7228510,
  "lon": -2.9377269,
  "tags": {
    "amenity": "toilets",
    "name": "Marine Parade Public Toilets"
  }
},
{
  "type": "node",
  "id": 1594031366,
  "lat": 50.6126418,
  "lon": -2.4533330,
  "tags": {
    "amenity": "toilets",
    "wheelchair": "yes"
  }
},
{
  "type": "node",
  "id": 1594408509,
  "lat": 50.6099750,
  "lon": -2.4531220,
  "tags": {
    "amenity": "toilets"
  }
},
{
  "type": "node",
  "id": 1594408662,
  "lat": 50.6075578,
  "lon": -2.4541302,
  "tags": {
    "amenity": "toilets"
  }
},
{
  "type": "node",
  "id": 1595257363,
  "lat": 50.6176057,
  "lon": -2.4511430,
  "tags": {
    "amenity": "toilets",
    "wheelchair": "yes"
  }
},
{
  "type": "node",
  "id": 1595329305,
  "lat": 50.6224801,
  "lon": -2.4467486,
  "tags": {
    "amenity": "toilets"
  }
},
{
  "type": "node",
  "id": 1598360884,
  "lat": 50.6154135,
  "lon": -2.4577306,
  "tags": {
    "amenity": "toilets",
    "wheelchair": "yes"
  }
},
{
  "type": "node",
  "id": 1600589365,
  "lat": 50.7011325,
  "lon": -2.7267882,
  "tags": {
    "amenity": "toilets",
    "fee": "no"
  }
},
{
  "type": "node",
  "id": 1600630132,
  "lat": 50.7264932,
  "lon": -2.7781299,
  "tags": {
    "amenity": "toilets"
  }
},
{
  "type": "node",
  "id": 1607735070,
  "lat": 50.6879795,
  "lon": -1.9621788,
  "tags": {
    "amenity": "toilets",
    "source": "survey"
  }
},
{
  "type": "node",
  "id": 1611213924,
  "lat": 50.6081429,
  "lon": -1.9553303,
  "tags": {
    "amenity": "toilets"
  }
},
{
  "type": "node",
  "id": 1611213933,
  "lat": 50.6077994,
  "lon": -1.9513207,
  "tags": {
    "amenity": "toilets"
  }
},
{
  "type": "node",
  "id": 1611598677,
  "lat": 50.6454471,
  "lon": -2.0624906,
  "tags": {
    "amenity": "toilets"
  }
},
{
  "type": "node",
  "id": 1705408069,
  "lat": 50.7135429,
  "lon": -2.4420746,
  "tags": {
    "amenity": "toilets"
  }
},
{
  "type": "node",
  "id": 1718479827,
  "lat": 50.7288997,
  "lon": -2.9307068,
  "tags": {
    "amenity": "toilets",
    "name": "Charmouth Road Public Toilets"
  }
},
{
  "type": "node",
  "id": 1757467536,
  "lat": 50.6638694,
  "lon": -2.6186949,
  "tags": {
    "amenity": "toilets"
  }
},
{
  "type": "node",
  "id": 1783692595,
  "lat": 50.7995098,
  "lon": -1.9882734,
  "tags": {
    "amenity": "toilets"
  }
},
{
  "type": "node",
  "id": 1848213014,
  "lat": 50.6891194,
  "lon": -1.9569397,
  "tags": {
    "amenity": "toilets"
  }
},
{
  "type": "node",
  "id": 1871919623,
  "lat": 50.7247224,
  "lon": -2.9331474,
  "tags": {
    "amenity": "toilets",
    "fee": "no",
    "name": "Cobb Gate Public Toilets"
  }
},
{
  "type": "node",
  "id": 1985947713,
  "lat": 50.8092780,
  "lon": -2.7385499,
  "tags": {
    "amenity": "toilets"
  }
},
{
  "type": "node",
  "id": 1988917076,
  "lat": 50.5950403,
  "lon": -1.9534965,
  "tags": {
    "amenity": "toilets",
    "layer": "-1",
    "wheelchair": "yes"
  }
},
{
  "type": "node",
  "id": 1989472088,
  "lat": 50.7383096,
  "lon": -1.6949557,
  "tags": {
    "amenity": "toilets"
  }
},
{
  "type": "node",
  "id": 2136297546,
  "lat": 50.9486043,
  "lon": -2.5151019,
  "tags": {
    "amenity": "toilets"
  }
},
{
  "type": "node",
  "id": 2136300047,
  "lat": 50.9453039,
  "lon": -2.5158824,
  "tags": {
    "amenity": "toilets"
  }
},
{
  "type": "node",
  "id": 2152650347,
  "lat": 50.7140690,
  "lon": -2.4356492,
  "tags": {
    "amenity": "toilets"
  }
},
{
  "type": "node",
  "id": 2174158972,
  "lat": 50.7418154,
  "lon": -1.6966800,
  "tags": {
    "amenity": "toilets"
  }
},
{
  "type": "node",
  "id": 2194711145,
  "lat": 50.6190390,
  "lon": -2.2505352,
  "tags": {
    "amenity": "toilets"
  }
},
{
  "type": "node",
  "id": 2203864203,
  "lat": 50.7292316,
  "lon": -1.7343244,
  "tags": {
    "amenity": "toilets"
  }
},
{
  "type": "node",
  "id": 2306853067,
  "lat": 50.6388744,
  "lon": -2.0576025,
  "tags": {
    "amenity": "toilets",
    "fixme": "check location"
  }
},
{
  "type": "node",
  "id": 2376821446,
  "lat": 50.9458136,
  "lon": -2.5130075,
  "tags": {
    "amenity": "toilets"
  }
},
{
  "type": "node",
  "id": 2427752379,
  "lat": 50.5792002,
  "lon": -2.4697663,
  "tags": {
    "amenity": "toilets"
  }
},
{
  "type": "node",
  "id": 2505648855,
  "lat": 50.6204697,
  "lon": -2.1681066,
  "tags": {
    "amenity": "toilets",
    "fee": "no",
    "source:amenity": "survey"
  }
},
{
  "type": "node",
  "id": 2521946280,
  "lat": 50.5956394,
  "lon": -1.9569334,
  "tags": {
    "amenity": "toilets"
  }
},
{
  "type": "node",
  "id": 2771027037,
  "lat": 50.6099081,
  "lon": -1.9599464,
  "tags": {
    "amenity": "toilets"
  }
},
{
  "type": "node",
  "id": 2938245422,
  "lat": 50.7196667,
  "lon": -2.9369206,
  "tags": {
    "amenity": "toilets",
    "name": "Victoria Pier Public Toilet (Male Only)"
  }
},
{
  "type": "node",
  "id": 2938245427,
  "lat": 50.7206190,
  "lon": -2.9392494,
  "tags": {
    "amenity": "toilets",
    "name": "Monmouth Beach Public Toilets"
  }
},
{
  "type": "node",
  "id": 2938245428,
  "lat": 50.7269910,
  "lon": -2.9364181,
  "tags": {
    "amenity": "toilets",
    "name": "Woodmead Halls Toilets"
  }
},
{
  "type": "node",
  "id": 2938245429,
  "lat": 50.7277258,
  "lon": -2.9332894,
  "tags": {
    "amenity": "toilets",
    "name": "Anning Road Public Toilets"
  }
},
{
  "type": "node",
  "id": 2986813636,
  "lat": 50.7321344,
  "lon": -2.4016089,
  "tags": {
    "amenity": "toilets"
  }
},
{
  "type": "node",
  "id": 3056975104,
  "lat": 50.6194592,
  "lon": -2.2527556,
  "tags": {
    "amenity": "toilets",
    "wheelchair": "yes"
  }
},
{
  "type": "node",
  "id": 3304847765,
  "lat": 50.9269588,
  "lon": -2.3039475,
  "tags": {
    "amenity": "toilets"
  }
},
{
  "type": "node",
  "id": 3304847766,
  "lat": 50.9206161,
  "lon": -2.3113454,
  "tags": {
    "amenity": "toilets"
  }
},
{
  "type": "node",
  "id": 3466298689,
  "lat": 50.6383611,
  "lon": -2.2068368,
  "tags": {
    "amenity": "toilets"
  }
},
{
  "type": "node",
  "id": 3468994496,
  "lat": 50.6387318,
  "lon": -2.0576246,
  "tags": {
    "amenity": "toilets",
    "operator": "National trust"
  }
},
{
  "type": "node",
  "id": 3634018570,
  "lat": 50.6679583,
  "lon": -2.5637676,
  "tags": {
    "access": "private",
    "amenity": "toilets"
  }
},
{
  "type": "node",
  "id": 3634018573,
  "lat": 50.6680633,
  "lon": -2.5655279,
  "tags": {
    "access": "private",
    "amenity": "toilets"
  }
},
{
  "type": "node",
  "id": 3655730525,
  "lat": 50.7126240,
  "lon": -2.4380240,
  "tags": {
    "amenity": "toilets",
    "female": "yes",
    "male": "yes"
  }
},
{
  "type": "node",
  "id": 3796826090,
  "lat": 50.7104855,
  "lon": -2.4410101,
  "tags": {
    "amenity": "toilets"
  }
},
{
  "type": "node",
  "id": 3796826412,
  "lat": 50.7102902,
  "lon": -2.4410101,
  "tags": {
    "amenity": "toilets"
  }
},
{
  "type": "way",
  "id": 60306450,
  "nodes": [
    749958403,
    749956717,
    749956726,
    749957351,
    749958403
  ],
  "tags": {
    "amenity": "toilets",
    "building": "yes",
    "source:building": "OS_OpenData_StreetView"
  }
},
{
  "type": "way",
  "id": 108413473,
  "nodes": [
    1244118861,
    1244118855,
    1244118780,
    1244118856,
    1244118861
  ],
  "tags": {
    "amenity": "toilets",
    "building": "yes",
    "fee": "no"
  }
},
{
  "type": "way",
  "id": 132962937,
  "nodes": [
    1463033363,
    1463033310,
    1463033332,
    1463033274,
    1463033273,
    1463033302,
    1463033338,
    1463033261,
    1463033257,
    1463033247,
    1463033363
  ],
  "tags": {
    "amenity": "toilets",
    "building": "yes",
    "fee": "no",
    "wheelchair": "yes"
  }
},
{
  "type": "way",
  "id": 147039795,
  "nodes": [
    1602355633,
    1602355611,
    1602355436,
    1602355458,
    1602355561,
    1602355551,
    1602355633
  ],
  "tags": {
    "amenity": "toilets",
    "building": "yes"
  }
},
{
  "type": "way",
  "id": 147040063,
  "nodes": [
    1602363941,
    1602363936,
    1602363937,
    1602363939,
    1602363940,
    1602363944,
    1602363943,
    1602363946,
    1602363941
  ],
  "tags": {
    "amenity": "toilets",
    "building": "yes"
  }
},
{
  "type": "way",
  "id": 161565094,
  "nodes": [
    1735330997,
    1735331003,
    1735330993,
    1735330991,
    1735330997
  ],
  "tags": {
    "amenity": "toilets",
    "building": "yes",
    "fee": "no",
    "female": "yes",
    "male": "yes",
    "name": "Back Street Public Toilets",
    "supervised": "no",
    "wheelchair": "yes"
  }
},
{
  "type": "way",
  "id": 170130277,
  "nodes": [
    1812772124,
    1812772257,
    2906439710,
    2906439708,
    2906439709,
    1812772124
  ],
  "tags": {
    "amenity": "toilets",
    "surveillance": "public"
  }
},
{
  "type": "way",
  "id": 177177389,
  "nodes": [
    1876267927,
    1876268072,
    1876268112,
    1876268042,
    1876267927
  ],
  "tags": {
    "access": "customer",
    "amenity": "toilets",
    "building": "yes"
  }
},
{
  "type": "way",
  "id": 177177429,
  "nodes": [
    1876268106,
    1876268149,
    1876267931,
    1876268147,
    1876268074,
    1876268039,
    1876268106
  ],
  "tags": {
    "access": "customer",
    "amenity": "toilets",
    "building": "yes"
  }
},
{
  "type": "way",
  "id": 188225758,
  "nodes": [
    1988489089,
    1988489294,
    1988488927,
    1988489242,
    1988489089
  ],
  "tags": {
    "amenity": "toilets",
    "building": "yes"
  }
},
{
  "type": "way",
  "id": 188225780,
  "nodes": [
    1988488941,
    1988489373,
    1988489444,
    1988489211,
    1988489175,
    1988488976,
    1988489274,
    1988489280,
    1988489085,
    1988489217,
    1988489326,
    1988489392,
    1988488941
  ],
  "tags": {
    "amenity": "toilets",
    "building": "yes"
  }
},
{
  "type": "way",
  "id": 188318927,
  "nodes": [
    1989472233,
    1989472239,
    1989471997,
    1989472282,
    1989472233
  ],
  "tags": {
    "amenity": "toilets",
    "building": "yes"
  }
},
{
  "type": "way",
  "id": 192450090,
  "nodes": [
    2030039628,
    2030039630,
    2030039624,
    2030039621,
    2030039628
  ],
  "tags": {
    "access": "private",
    "amenity": "toilets",
    "building": "yes"
  }
},
{
  "type": "way",
  "id": 202900794,
  "nodes": [
    2128364985,
    2128364994,
    430652748,
    2128364982,
    2128364985
  ],
  "tags": {
    "amenity": "toilets"
  }
},
{
  "type": "way",
  "id": 205358371,
  "nodes": [
    2130229809,
    2153306408,
    2153306409,
    2130229812,
    2130229809
  ],
  "tags": {
    "amenity": "toilets",
    "building": "yes"
  }
},
{
  "type": "way",
  "id": 215290508,
  "nodes": [
    2246924314,
    2246924332,
    2246924242,
    2246924469,
    2246924314
  ],
  "tags": {
    "amenity": "toilets",
    "building": "yes"
  }
},
{
  "type": "way",
  "id": 235414938,
  "nodes": [
    1448392765,
    2434797146,
    2434797139,
    1448392760,
    1448392765
  ],
  "tags": {
    "amenity": "toilets",
    "building": "yes",
    "name": "Holmbush Public Toilets"
  }
},
{
  "type": "way",
  "id": 267159156,
  "nodes": [
    1792529380,
    2726220748,
    2726220746,
    2726220749,
    1792529380
  ],
  "tags": {
    "amenity": "toilets",
    "building": "yes",
    "source": "bing"
  }
},
{
  "type": "way",
  "id": 268531394,
  "nodes": [
    2738804130,
    2738804140,
    2738804114,
    2738804111,
    1562484831,
    2738804115,
    2738804123,
    2738804124,
    2738804130
  ],
  "tags": {
    "amenity": "toilets",
    "building": "yes",
    "source": "bing"
  }
},
{
  "type": "way",
  "id": 272157575,
  "nodes": [
    2770873602,
    2770873604,
    2770873596,
    2770873593,
    2770873602
  ],
  "tags": {
    "access": "public",
    "amenity": "toilets",
    "building": "yes",
    "female": "yes",
    "male": "yes",
    "name": "Peveril Point",
    "opening_hours": "Mo-Su 08:00-17:00",
    "source": "bing"
  }
},
{
  "type": "way",
  "id": 272373613,
  "nodes": [
    2773149430,
    2773149423,
    2773149421,
    2773149428,
    2773149430
  ],
  "tags": {
    "amenity": "toilets",
    "building": "yes",
    "source": "bing"
  }
},
{
  "type": "way",
  "id": 276147149,
  "nodes": [
    2807662132,
    2807662130,
    2807662128,
    2807662129,
    2807662132
  ],
  "tags": {
    "amenity": "toilets",
    "building": "yes",
    "fee": "no",
    "note": "Entrance to Monkey World required",
    "operator": "Monkey World"
  }
},
{
  "type": "way",
  "id": 289117704,
  "nodes": [
    2926668205,
    2926668206,
    2926668207,
    2926668208,
    2926668209,
    2926662591,
    2926662592,
    2926662593,
    2926662594,
    2926662599,
    2926662600,
    2926668201,
    2926668202,
    2926668203,
    2926668204,
    2926662595,
    2926662596,
    2926662597,
    2926662598,
    2926668205
  ],
  "tags": {
    "amenity": "toilets",
    "building": "yes",
    "fee": "no",
    "wheelchair": "yes"
  }
},
{
  "type": "way",
  "id": 299046777,
  "nodes": [
    3029781630,
    3029781627,
    3029781629,
    3029781628,
    3029781630
  ],
  "tags": {
    "amenity": "toilets",
    "building": "toilets"
  }
},
{
  "type": "way",
  "id": 315242050,
  "nodes": [
    3213489068,
    3213489066,
    3213489063,
    3213489061,
    3213489067,
    3213489068
  ],
  "tags": {
    "amenity": "toilets",
    "building": "yes",
    "source": "bing"
  }
},
{
  "type": "way",
  "id": 321320780,
  "nodes": [
    3280614713,
    3280614714,
    3280614712,
    3280614711,
    3280614713
  ],
  "tags": {
    "amenity": "toilets"
  }
},
{
  "type": "way",
  "id": 346067633,
  "nodes": [
    3526779942,
    3526779943,
    3526779944,
    3526779945,
    3526779942
  ],
  "tags": {
    "access": "customers",
    "amenity": "toilets",
    "building": "yes"
  }
},
{
  "type": "way",
  "id": 368157402,
  "nodes": [
    3720153350,
    3720153351,
    3720153352,
    3720153353,
    3720153350
  ],
  "tags": {
    "amenity": "toilets",
    "building": "yes"
  }
},
{
  "type": "way",
  "id": 371372723,
  "nodes": [
    3749460157,
    3749460158,
    3749460164,
    3749460165,
    3749460159,
    3749460160,
    3749460157
  ],
  "tags": {
    "amenity": "toilets",
    "building": "yes"
  }
},
{
  "type": "way",
  "id": 376143112,
  "nodes": [
    33610309,
    3795751899,
    3795751898,
    3795751897,
    33610309
  ],
  "tags": {
    "amenity": "toilets",
    "building": "yes",
    "source": "bing"
  }
},
{
  "type": "node",
  "id": 1448392760,
  "lat": 50.7242736,
  "lon": -2.9404085
},
{
  "type": "node",
  "id": 1448392765,
  "lat": 50.7242964,
  "lon": -2.9405182
},
{
  "type": "node",
  "id": 2434797139,
  "lat": 50.7243203,
  "lon": -2.9403843
},
{
  "type": "node",
  "id": 2434797146,
  "lat": 50.7243431,
  "lon": -2.9404939
},
{
  "type": "node",
  "id": 1463033247,
  "lat": 50.7120908,
  "lon": -2.7630683
},
{
  "type": "node",
  "id": 1463033257,
  "lat": 50.7120543,
  "lon": -2.7629932
},
{
  "type": "node",
  "id": 1463033261,
  "lat": 50.7120322,
  "lon": -2.7630187
},
{
  "type": "node",
  "id": 1463033273,
  "lat": 50.7119811,
  "lon": -2.7630778
},
{
  "type": "node",
  "id": 1463033274,
  "lat": 50.7119499,
  "lon": -2.7631219
},
{
  "type": "node",
  "id": 1463033302,
  "lat": 50.7119711,
  "lon": -2.7630562
},
{
  "type": "node",
  "id": 1463033310,
  "lat": 50.7119473,
  "lon": -2.7631850
},
{
  "type": "node",
  "id": 1463033332,
  "lat": 50.7119685,
  "lon": -2.7631595
},
{
  "type": "node",
  "id": 1463033338,
  "lat": 50.7120195,
  "lon": -2.7629986
},
{
  "type": "node",
  "id": 1463033363,
  "lat": 50.7119643,
  "lon": -2.7632225
},
{
  "type": "node",
  "id": 1602355436,
  "lat": 50.7047630,
  "lon": -2.7347225
},
{
  "type": "node",
  "id": 1602355458,
  "lat": 50.7047843,
  "lon": -2.7348989
},
{
  "type": "node",
  "id": 1602355551,
  "lat": 50.7049327,
  "lon": -2.7348290
},
{
  "type": "node",
  "id": 1602355561,
  "lat": 50.7049357,
  "lon": -2.7348533
},
{
  "type": "node",
  "id": 1602355611,
  "lat": 50.7050106,
  "lon": -2.7346480
},
{
  "type": "node",
  "id": 1602355633,
  "lat": 50.7050289,
  "lon": -2.7348000
},
{
  "type": "node",
  "id": 1602363936,
  "lat": 50.7064004,
  "lon": -2.7373288
},
{
  "type": "node",
  "id": 1602363937,
  "lat": 50.7064891,
  "lon": -2.7371859
},
{
  "type": "node",
  "id": 1602363939,
  "lat": 50.7065678,
  "lon": -2.7373076
},
{
  "type": "node",
  "id": 1602363940,
  "lat": 50.7065795,
  "lon": -2.7372886
},
{
  "type": "node",
  "id": 1602363941,
  "lat": 50.7066090,
  "lon": -2.7376513
},
{
  "type": "node",
  "id": 1602363943,
  "lat": 50.7066168,
  "lon": -2.7373867
},
{
  "type": "node",
  "id": 1602363944,
  "lat": 50.7066296,
  "lon": -2.7373660
},
{
  "type": "node",
  "id": 1602363946,
  "lat": 50.7066966,
  "lon": -2.7375101
},
{
  "type": "node",
  "id": 2030039621,
  "lat": 50.7024612,
  "lon": -2.7285458
},
{
  "type": "node",
  "id": 2030039624,
  "lat": 50.7024662,
  "lon": -2.7285728
},
{
  "type": "node",
  "id": 2030039628,
  "lat": 50.7024806,
  "lon": -2.7285340
},
{
  "type": "node",
  "id": 2030039630,
  "lat": 50.7024857,
  "lon": -2.7285615
},
{
  "type": "node",
  "id": 3280614711,
  "lat": 50.7179439,
  "lon": -2.7766454
},
{
  "type": "node",
  "id": 3280614712,
  "lat": 50.7179699,
  "lon": -2.7765223
},
{
  "type": "node",
  "id": 3280614713,
  "lat": 50.7181202,
  "lon": -2.7767382
},
{
  "type": "node",
  "id": 3280614714,
  "lat": 50.7181461,
  "lon": -2.7766150
},
{
  "type": "node",
  "id": 1735330991,
  "lat": 50.6665969,
  "lon": -2.6001755
},
{
  "type": "node",
  "id": 1735330993,
  "lat": 50.6666154,
  "lon": -2.6000486
},
{
  "type": "node",
  "id": 1735330997,
  "lat": 50.6666453,
  "lon": -2.6001930
},
{
  "type": "node",
  "id": 1735331003,
  "lat": 50.6666638,
  "lon": -2.6000661
},
{
  "type": "node",
  "id": 3720153350,
  "lat": 50.6071927,
  "lon": -2.4458687
},
{
  "type": "node",
  "id": 3720153351,
  "lat": 50.6072355,
  "lon": -2.4458874
},
{
  "type": "node",
  "id": 3720153352,
  "lat": 50.6072117,
  "lon": -2.4460224
},
{
  "type": "node",
  "id": 3720153353,
  "lat": 50.6071689,
  "lon": -2.4460037
},
{
  "type": "node",
  "id": 2926662591,
  "lat": 50.6334695,
  "lon": -2.4311722
},
{
  "type": "node",
  "id": 2926662592,
  "lat": 50.6334557,
  "lon": -2.4311761
},
{
  "type": "node",
  "id": 2926662593,
  "lat": 50.6334419,
  "lon": -2.4311730
},
{
  "type": "node",
  "id": 2926662594,
  "lat": 50.6334294,
  "lon": -2.4311631
},
{
  "type": "node",
  "id": 2926662595,
  "lat": 50.6334433,
  "lon": -2.4310408
},
{
  "type": "node",
  "id": 2926662596,
  "lat": 50.6334581,
  "lon": -2.4310385
},
{
  "type": "node",
  "id": 2926662597,
  "lat": 50.6334725,
  "lon": -2.4310441
},
{
  "type": "node",
  "id": 2926662598,
  "lat": 50.6334849,
  "lon": -2.4310570
},
{
  "type": "node",
  "id": 2926662599,
  "lat": 50.6334195,
  "lon": -2.4311475
},
{
  "type": "node",
  "id": 2926662600,
  "lat": 50.6334132,
  "lon": -2.4311278
},
{
  "type": "node",
  "id": 2926668201,
  "lat": 50.6334112,
  "lon": -2.4311060
},
{
  "type": "node",
  "id": 2926668202,
  "lat": 50.6334137,
  "lon": -2.4310844
},
{
  "type": "node",
  "id": 2926668203,
  "lat": 50.6334204,
  "lon": -2.4310650
},
{
  "type": "node",
  "id": 2926668204,
  "lat": 50.6334306,
  "lon": -2.4310500
},
{
  "type": "node",
  "id": 2926668205,
  "lat": 50.6334938,
  "lon": -2.4310757
},
{
  "type": "node",
  "id": 2926668206,
  "lat": 50.6334982,
  "lon": -2.4310980
},
{
  "type": "node",
  "id": 2926668207,
  "lat": 50.6334977,
  "lon": -2.4311214
},
{
  "type": "node",
  "id": 2926668208,
  "lat": 50.6334922,
  "lon": -2.4311432
},
{
  "type": "node",
  "id": 2926668209,
  "lat": 50.6334824,
  "lon": -2.4311607
},
{
  "type": "node",
  "id": 3526779942,
  "lat": 50.6458875,
  "lon": -2.4411607
},
{
  "type": "node",
  "id": 3526779943,
  "lat": 50.6458796,
  "lon": -2.4410804
},
{
  "type": "node",
  "id": 3526779944,
  "lat": 50.6458240,
  "lon": -2.4410940
},
{
  "type": "node",
  "id": 3526779945,
  "lat": 50.6458320,
  "lon": -2.4411744
},
{
  "type": "node",
  "id": 3029781627,
  "lat": 50.6350963,
  "lon": -2.3758391
},
{
  "type": "node",
  "id": 3029781628,
  "lat": 50.6351195,
  "lon": -2.3757330
},
{
  "type": "node",
  "id": 3029781629,
  "lat": 50.6350724,
  "lon": -2.3757829
},
{
  "type": "node",
  "id": 3029781630,
  "lat": 50.6351435,
  "lon": -2.3757891
},
{
  "type": "node",
  "id": 430652748,
  "lat": 50.7149770,
  "lon": -2.4429571
},
{
  "type": "node",
  "id": 2128364982,
  "lat": 50.7149600,
  "lon": -2.4431132
},
{
  "type": "node",
  "id": 2128364985,
  "lat": 50.7150145,
  "lon": -2.4431280
},
{
  "type": "node",
  "id": 2128364994,
  "lat": 50.7150315,
  "lon": -2.4429719
},
{
  "type": "node",
  "id": 1562484831,
  "lat": 50.6086780,
  "lon": -2.1280827
},
{
  "type": "node",
  "id": 2738804111,
  "lat": 50.6086377,
  "lon": -2.1280506
},
{
  "type": "node",
  "id": 2738804114,
  "lat": 50.6086662,
  "lon": -2.1279616
},
{
  "type": "node",
  "id": 2738804115,
  "lat": 50.6086716,
  "lon": -2.1281024
},
{
  "type": "node",
  "id": 2738804123,
  "lat": 50.6087036,
  "lon": -2.1281279
},
{
  "type": "node",
  "id": 2738804124,
  "lat": 50.6087099,
  "lon": -2.1281081
},
{
  "type": "node",
  "id": 2738804130,
  "lat": 50.6087521,
  "lon": -2.1281418
},
{
  "type": "node",
  "id": 2738804140,
  "lat": 50.6087807,
  "lon": -2.1280527
},
{
  "type": "node",
  "id": 2807662128,
  "lat": 50.6975227,
  "lon": -2.2169068
},
{
  "type": "node",
  "id": 2807662129,
  "lat": 50.6975604,
  "lon": -2.2171095
},
{
  "type": "node",
  "id": 2807662130,
  "lat": 50.6975970,
  "lon": -2.2168723
},
{
  "type": "node",
  "id": 2807662132,
  "lat": 50.6976347,
  "lon": -2.2170751
},
{
  "type": "node",
  "id": 1812772124,
  "lat": 50.5985134,
  "lon": -2.0378899
},
{
  "type": "node",
  "id": 1812772257,
  "lat": 50.5985028,
  "lon": -2.0377303
},
{
  "type": "node",
  "id": 2906439708,
  "lat": 50.5984622,
  "lon": -2.0377371
},
{
  "type": "node",
  "id": 2906439709,
  "lat": 50.5984729,
  "lon": -2.0378967
},
{
  "type": "node",
  "id": 2906439710,
  "lat": 50.5984805,
  "lon": -2.0377341
},
{
  "type": "node",
  "id": 2130229809,
  "lat": 50.6095076,
  "lon": -1.9989590
},
{
  "type": "node",
  "id": 2130229812,
  "lat": 50.6095147,
  "lon": -1.9990538
},
{
  "type": "node",
  "id": 2153306408,
  "lat": 50.6094565,
  "lon": -1.9989684
},
{
  "type": "node",
  "id": 2153306409,
  "lat": 50.6094636,
  "lon": -1.9990633
},
{
  "type": "node",
  "id": 2773149421,
  "lat": 50.6071366,
  "lon": -1.9952651
},
{
  "type": "node",
  "id": 2773149423,
  "lat": 50.6071371,
  "lon": -1.9951977
},
{
  "type": "node",
  "id": 2773149428,
  "lat": 50.6072230,
  "lon": -1.9952666
},
{
  "type": "node",
  "id": 2773149430,
  "lat": 50.6072235,
  "lon": -1.9951992
},
{
  "type": "node",
  "id": 2770873593,
  "lat": 50.6068457,
  "lon": -1.9459192
},
{
  "type": "node",
  "id": 2770873596,
  "lat": 50.6068469,
  "lon": -1.9458456
},
{
  "type": "node",
  "id": 2770873602,
  "lat": 50.6069111,
  "lon": -1.9459218
},
{
  "type": "node",
  "id": 2770873604,
  "lat": 50.6069123,
  "lon": -1.9458482
},
{
  "type": "node",
  "id": 1244118780,
  "lat": 50.6108004,
  "lon": -1.9644037
},
{
  "type": "node",
  "id": 1244118855,
  "lat": 50.6108131,
  "lon": -1.9645605
},
{
  "type": "node",
  "id": 1244118856,
  "lat": 50.6108669,
  "lon": -1.9643902
},
{
  "type": "node",
  "id": 1244118861,
  "lat": 50.6108796,
  "lon": -1.9645471
},
{
  "type": "node",
  "id": 1792529380,
  "lat": 50.6110461,
  "lon": -1.9577778
},
{
  "type": "node",
  "id": 2726220746,
  "lat": 50.6108951,
  "lon": -1.9578198
},
{
  "type": "node",
  "id": 2726220748,
  "lat": 50.6109065,
  "lon": -1.9577325
},
{
  "type": "node",
  "id": 2726220749,
  "lat": 50.6110347,
  "lon": -1.9578651
},
{
  "type": "node",
  "id": 749956717,
  "lat": 50.6190308,
  "lon": -1.9592000
},
{
  "type": "node",
  "id": 749956726,
  "lat": 50.6188694,
  "lon": -1.9591561
},
{
  "type": "node",
  "id": 749957351,
  "lat": 50.6188562,
  "lon": -1.9592768
},
{
  "type": "node",
  "id": 749958403,
  "lat": 50.6190176,
  "lon": -1.9593206
},
{
  "type": "node",
  "id": 33610309,
  "lat": 50.6415550,
  "lon": -1.9466215
},
{
  "type": "node",
  "id": 3795751897,
  "lat": 50.6415545,
  "lon": -1.9465386
},
{
  "type": "node",
  "id": 3795751898,
  "lat": 50.6415967,
  "lon": -1.9465380
},
{
  "type": "node",
  "id": 3795751899,
  "lat": 50.6415972,
  "lon": -1.9466208
},
{
  "type": "node",
  "id": 1988488927,
  "lat": 50.7355958,
  "lon": -1.7595376
},
{
  "type": "node",
  "id": 1988489089,
  "lat": 50.7356280,
  "lon": -1.7596692
},
{
  "type": "node",
  "id": 1988489242,
  "lat": 50.7355869,
  "lon": -1.7596618
},
{
  "type": "node",
  "id": 1988489294,
  "lat": 50.7356369,
  "lon": -1.7595450
},
{
  "type": "node",
  "id": 1988488941,
  "lat": 50.7287605,
  "lon": -1.7529097
},
{
  "type": "node",
  "id": 1988488976,
  "lat": 50.7287120,
  "lon": -1.7528341
},
{
  "type": "node",
  "id": 1988489085,
  "lat": 50.7287604,
  "lon": -1.7528194
},
{
  "type": "node",
  "id": 1988489175,
  "lat": 50.7287096,
  "lon": -1.7528629
},
{
  "type": "node",
  "id": 1988489211,
  "lat": 50.7287162,
  "lon": -1.7528918
},
{
  "type": "node",
  "id": 1988489217,
  "lat": 50.7287727,
  "lon": -1.7528382
},
{
  "type": "node",
  "id": 1988489274,
  "lat": 50.7287249,
  "lon": -1.7528144
},
{
  "type": "node",
  "id": 1988489280,
  "lat": 50.7287419,
  "lon": -1.7528082
},
{
  "type": "node",
  "id": 1988489326,
  "lat": 50.7287766,
  "lon": -1.7528707
},
{
  "type": "node",
  "id": 1988489373,
  "lat": 50.7287443,
  "lon": -1.7529146
},
{
  "type": "node",
  "id": 1988489392,
  "lat": 50.7287706,
  "lon": -1.7528945
},
{
  "type": "node",
  "id": 1988489444,
  "lat": 50.7287256,
  "lon": -1.7529079
},
{
  "type": "node",
  "id": 3749460157,
  "lat": 50.7333675,
  "lon": -1.7278845
},
{
  "type": "node",
  "id": 3749460158,
  "lat": 50.7333302,
  "lon": -1.7278537
},
{
  "type": "node",
  "id": 3749460159,
  "lat": 50.7332827,
  "lon": -1.7280133
},
{
  "type": "node",
  "id": 3749460160,
  "lat": 50.7333209,
  "lon": -1.7280441
},
{
  "type": "node",
  "id": 3749460164,
  "lat": 50.7333200,
  "lon": -1.7278878
},
{
  "type": "node",
  "id": 3749460165,
  "lat": 50.7332922,
  "lon": -1.7279813
},
{
  "type": "node",
  "id": 1989471997,
  "lat": 50.7404504,
  "lon": -1.7047146
},
{
  "type": "node",
  "id": 1989472233,
  "lat": 50.7402943,
  "lon": -1.7048573
},
{
  "type": "node",
  "id": 1989472239,
  "lat": 50.7403785,
  "lon": -1.7046438
},
{
  "type": "node",
  "id": 1989472282,
  "lat": 50.7403663,
  "lon": -1.7049281
},
{
  "type": "node",
  "id": 3213489061,
  "lat": 50.7739648,
  "lon": -2.0171595
},
{
  "type": "node",
  "id": 3213489063,
  "lat": 50.7739775,
  "lon": -2.0172326
},
{
  "type": "node",
  "id": 3213489066,
  "lat": 50.7740348,
  "lon": -2.0172077
},
{
  "type": "node",
  "id": 3213489067,
  "lat": 50.7740439,
  "lon": -2.0171252
},
{
  "type": "node",
  "id": 3213489068,
  "lat": 50.7740566,
  "lon": -2.0171982
},
{
  "type": "node",
  "id": 1876267927,
  "lat": 50.9556321,
  "lon": -2.0063427
},
{
  "type": "node",
  "id": 1876267931,
  "lat": 50.9553769,
  "lon": -2.0067500
},
{
  "type": "node",
  "id": 1876268039,
  "lat": 50.9554040,
  "lon": -2.0066040
},
{
  "type": "node",
  "id": 1876268042,
  "lat": 50.9557503,
  "lon": -2.0064554
},
{
  "type": "node",
  "id": 1876268072,
  "lat": 50.9556048,
  "lon": -2.0064135
},
{
  "type": "node",
  "id": 1876268074,
  "lat": 50.9553792,
  "lon": -2.0066759
},
{
  "type": "node",
  "id": 1876268106,
  "lat": 50.9553566,
  "lon": -2.0065627
},
{
  "type": "node",
  "id": 1876268112,
  "lat": 50.9557241,
  "lon": -2.0065241
},
{
  "type": "node",
  "id": 1876268147,
  "lat": 50.9553971,
  "lon": -2.0066915
},
{
  "type": "node",
  "id": 1876268149,
  "lat": 50.9553116,
  "lon": -2.0066931
},
{
  "type": "node",
  "id": 2246924332,
  "lat": 50.8250837,
  "lon": -1.8298265
},
{
  "type": "node",
  "id": 2246924242,
  "lat": 50.8249974,
  "lon": -1.8297827
},
{
  "type": "node",
  "id": 2246924314,
  "lat": 50.8250454,
  "lon": -1.8300140
},
{
  "type": "node",
  "id": 2246924469,
  "lat": 50.8249574,
  "lon": -1.8299726
}

  ]
}
